$$SOE
2460728.500000000, A.D. 2025-Feb-22 00:00:00.0000, -2.408826458085670E+08, 3.234724075290104E+08, -5.239729329894811E+06,
2460735.500000000, A.D. 2025-Mar-01 00:00:00.0000, -2.502458479330435E+08, 3.183949752185466E+08, -5.213972297560453E+06,
2460742.500000000, A.D. 2025-Mar-08 00:00:00.0000, -2.594261077355516E+08, 3.130848999212428E+08, -5.184405071802303E+06,
2460749.500000000, A.D. 2025-Mar-15 00:00:00.0000, -2.684189891974976E+08, 3.075488070870097E+08, -5.151094998552367E+06,
2460756.500000000, A.D. 2025-Mar-22 00:00:00.0000, -2.772202798753484E+08, 3.017933098128353E+08, -5.114109946391970E+06,
2460763.500000000, A.D. 2025-Mar-29 00:00:00.0000, -2.858259839048532E+08, 2.958250023495206E+08, -5.073518276236728E+06,
2460770.500000000, A.D. 2025-Apr-05 00:00:00.0000, -2.942323134984738E+08, 2.896504549956201E+08, -5.029388900679454E+06,
2460777.500000000, A.D. 2025-Apr-12 00:00:00.0000, -3.024356808753420E+08, 2.832762104516757E+08, -4.981791248181581E+06,
2460784.500000000, A.D. 2025-Apr-19 00:00:00.0000, -3.104326908189858E+08, 2.767087807231739E+08, -4.930795187009096E+06,
2460791.500000000, A.D. 2025-Apr-26 00:00:00.0000, -3.182201335969378E+08, 2.699546443381175E+08, -4.876470950143427E+06,
2460798.500000000, A.D. 2025-May-03 00:00:00.0000, -3.257949781336280E+08, 2.630202438686819E+08, -4.818889069749355E+06,
2460805.500000000, A.D. 2025-May-10 00:00:00.0000, -3.331543654120186E+08, 2.559119837379329E+08, -4.758120322880089E+06,
2460812.500000000, A.D. 2025-May-17 00:00:00.0000, -3.402956020700067E+08, 2.486362282447428E+08, -4.694235694913521E+06,
2460819.500000000, A.D. 2025-May-24 00:00:00.0000, -3.472161540191135E+08, 2.411992997281834E+08, -4.627306380867615E+06,
2460826.500000000, A.D. 2025-May-31 00:00:00.0000, -3.539136396679128E+08, 2.336074771594017E+08, -4.557403837209120E+06,
2460833.500000000, A.D. 2025-Jun-07 00:00:00.0000, -3.603858231508930E+08, 2.258669963439185E+08, -4.484599748647884E+06,
2460840.500000000, A.D. 2025-Jun-14 00:00:00.0000, -3.666306099278270E+08, 2.179840510479619E+08, -4.408965747460142E+06,
2460847.500000000, A.D. 2025-Jun-21 00:00:00.0000, -3.726460435355255E+08, 2.099647917610115E+08, -4.330573264180586E+06,
2460854.500000000, A.D. 2025-Jun-28 00:00:00.0000, -3.784303003578300E+08, 2.018153238413569E+08, -4.249493651718915E+06,
2460861.500000000, A.D. 2025-Jul-05 00:00:00.0000, -3.839816839268756E+08, 1.935417071819794E+08, -4.165798267074436E+06,
2460868.500000000, A.D. 2025-Jul-12 00:00:00.0000, -3.892986199457397E+08, 1.851499565763258E+08, -4.079558467236921E+06,
2460875.500000000, A.D. 2025-Jul-19 00:00:00.0000, -3.943796518399171E+08, 1.766460421960936E+08, -3.990845583524287E+06,
2460882.500000000, A.D. 2025-Jul-26 00:00:00.0000, -3.992234366231735E+08, 1.680358901115801E+08, -3.899730897902802E+06,
2460889.500000000, A.D. 2025-Aug-02 00:00:00.0000, -4.038287410078489E+08, 1.593253828637650E+08, -3.806285625173926E+06,
2460896.500000000, A.D. 2025-Aug-09 00:00:00.0000, -4.081944377318032E+08, 1.505203600619482E+08, -3.710580904036671E+06,
2460903.500000000, A.D. 2025-Aug-16 00:00:00.0000, -4.123195020206664E+08, 1.416266189331336E+08, -3.612687808907539E+06,
2460910.500000000, A.D. 2025-Aug-23 00:00:00.0000, -4.162030078882263E+08, 1.326499148298358E+08, -3.512677407612845E+06,
2460917.500000000, A.D. 2025-Aug-30 00:00:00.0000, -4.198441239412731E+08, 1.235959624010142E+08, -3.410620836366512E+06,
2460924.500000000, A.D. 2025-Sep-06 00:00:00.0000, -4.232421101028396E+08, 1.144704384172376E+08, -3.306589179863848E+06,
2460931.500000000, A.D. 2025-Sep-13 00:00:00.0000, -4.263963169222992E+08, 1.052789837592269E+08, -3.200653205991425E+06,
2460938.500000000, A.D. 2025-Sep-20 00:00:00.0000, -4.293061841960999E+08, 9.602720291971564E+07, -3.092883389477324E+06,
2460945.500000000, A.D. 2025-Sep-27 00:00:00.0000, -4.319712378341796E+08, 8.672066412385626E+07, -2.983350066677090E+06,
2460952.500000000, A.D. 2025-Oct-04 00:00:00.0000, -4.343910869840823E+08, 7.736490059940352E+07, -2.872123492136665E+06,
2460959.500000000, A.D. 2025-Oct-11 00:00:00.0000, -4.365654217848273E+08, 6.796541204767185E+07, -2.759273839787137E+06,
2460966.500000000, A.D. 2025-Oct-18 00:00:00.0000, -4.384940114644389E+08, 5.852766603713257E+07, -2.644871197207648E+06,
2460973.500000000, A.D. 2025-Oct-25 00:00:00.0000, -4.401767026372634E+08, 4.905709932743708E+07, -2.528985564713830E+06,
2460980.500000000, A.D. 2025-Nov-01 00:00:00.0000, -4.416134177560403E+08, 3.955911913576290E+07, -2.411686861442270E+06,
2460987.500000000, A.D. 2025-Nov-08 00:00:00.0000, -4.428041536782722E+08, 3.003910430959073E+07, -2.293044944017960E+06,
2460994.500000000, A.D. 2025-Nov-15 00:00:00.0000, -4.437489801941720E+08, 2.050240634188468E+07, -2.173129656128627E+06,
2461001.500000000, A.D. 2025-Nov-22 00:00:00.0000, -4.444480381107317E+08, 1.095435044313675E+07, -2.052010928118895E+06,
2461008.500000000, A.D. 2025-Nov-29 00:00:00.0000, -4.449015370441278E+08, 1.400237800537892E+06, -1.929758820114185E+06,
2461015.500000000, A.D. 2025-Dec-06 00:00:00.0000, -4.451097551980655E+08, -8.154651115415139E+06, -1.806443311317462E+06,
2461022.500000000, A.D. 2025-Dec-13 00:00:00.0000, -4.450730406957647E+08, -1.770505556947848E+07, -1.682134151095029E+06,
2461029.500000000, A.D. 2025-Dec-20 00:00:00.0000, -4.447918109719339E+08, -2.724573488251984E+07, -1.556901008676261E+06,
2461036.500000000, A.D. 2025-Dec-27 00:00:00.0000, -4.442665512942556E+08, -3.677146746426638E+07, -1.430813610926209E+06,
2461043.500000000, A.D. 2026-Jan-03 00:00:00.0000, -4.434978138698059E+08, -4.627704917663918E+07, -1.303941784539102E+06,
2461050.500000000, A.D. 2026-Jan-10 00:00:00.0000, -4.424862174254794E+08, -5.575729170976849E+07, -1.176355468240917E+06,
2461057.500000000, A.D. 2026-Jan-17 00:00:00.0000, -4.412324470293192E+08, -6.520702106429327E+07, -1.048124723753538E+06,
2461064.500000000, A.D. 2026-Jan-24 00:00:00.0000, -4.397372540738053E+08, -7.462107611891247E+07, -9.193197506371811E+05,
2461071.500000000, A.D. 2026-Jan-31 00:00:00.0000, -4.380014563965421E+08, -8.399430729237649E+07, -7.900109075763971E+05,
2461078.500000000, A.D. 2026-Feb-07 00:00:00.0000, -4.360259384760021E+08, -9.332157535919088E+07, -6.602687502594590E+05,
2461085.500000000, A.D. 2026-Feb-14 00:00:00.0000, -4.338116514487450E+08, -1.025977504362845E+08, -5.301641101485789E+05,
2461092.500000000, A.D. 2026-Feb-21 00:00:00.0000, -4.313596125601019E+08, -1.118177105656000E+08, -3.997682023585141E+05,
2461099.500000000, A.D. 2026-Feb-28 00:00:00.0000, -4.286709051325282E+08, -1.209763387414689E+08, -2.691525687363520E+05,
2461106.500000000, A.D. 2026-Mar-07 00:00:00.0000, -4.257466811103631E+08, -1.300685203361856E+08, -1.383888266732395E+05,
2461113.500000000, A.D. 2026-Mar-14 00:00:00.0000, -4.225881634075935E+08, -1.390891432601257E+08, -7.548668877877295E+03,
2461120.500000000, A.D. 2026-Mar-21 00:00:00.0000, -4.191966462775407E+08, -1.480330979603539E+08, 1.232959594443217E+05,
2461127.500000000, A.D. 2026-Mar-28 00:00:00.0000, -4.155734957131578E+08, -1.568952762306780E+08, 2.540727747291848E+05,
2461134.500000000, A.D. 2026-Apr-04 00:00:00.0000, -4.117201504807745E+08, -1.656705698019757E+08, 3.847091371537521E+05,
2461141.500000000, A.D. 2026-Apr-11 00:00:00.0000, -4.076381235139112E+08, -1.743538690767658E+08, 5.151320462476090E+05,
2461148.500000000, A.D. 2026-Apr-18 00:00:00.0000, -4.033290035088829E+08, -1.829400620185025E+08, 6.452681350310221E+05,
2461155.500000000, A.D. 2026-Apr-25 00:00:00.0000, -3.987944566768211E+08, -1.914240331847166E+08, 7.750436599422097E+05,
2461162.500000000, A.D. 2026-May-02 00:00:00.0000, -3.940362286215883E+08, -1.998006629381583E+08, 9.043844815874398E+05,
2461169.500000000, A.D. 2026-May-09 00:00:00.0000, -3.890561462195592E+08, -2.080648269075259E+08, 1.033216019706354E+06,
2461176.500000000, A.D. 2026-May-16 00:00:00.0000, -3.838561191246504E+08, -2.162113955652462E+08, 1.161463159187585E+06,
2461183.500000000, A.D. 2026-May-23 00:00:00.0000, -3.784381408485323E+08, -2.242352329057472E+08, 1.289050186083242E+06,
2461190.500000000, A.D. 2026-May-30 00:00:00.0000, -3.728042914961267E+08, -2.321311939106789E+08, 1.415900970408797E+06,
2461197.500000000, A.D. 2026-Jun-06 00:00:00.0000, -3.669567424761773E+08, -2.398941240818815E+08, 1.541939157157481E+06,
2461204.500000000, A.D. 2026-Jun-13 00:00:00.0000, -3.608977595252710E+08, -2.475188608508438E+08, 1.667088045414671E+06,
2461211.500000000, A.D. 2026-Jun-20 00:00:00.0000, -3.546297045502065E+08, -2.550002339446300E+08, 1.791270440681472E+06,
2461218.500000000, A.D. 2026-Jun-27 00:00:00.0000, -3.481550379889221E+08, -2.623330650534661E+08, 1.914408608428538E+06,
2461225.500000000, A.D. 2026-Jul-04 00:00:00.0000, -3.414763216908531E+08, -2.695121675808862E+08, 2.036424265451327E+06,
2461232.500000000, A.D. 2026-Jul-11 00:00:00.0000, -3.345962220632218E+08, -2.765323466152610E+08, 2.157238574796632E+06,
2461239.500000000, A.D. 2026-Jul-18 00:00:00.0000, -3.275175133904303E+08, -2.833883991046466E+08, 2.276772137742206E+06,
2461246.500000000, A.D. 2026-Jul-25 00:00:00.0000, -3.202430813013051E+08, -2.900751142413867E+08, 2.394944980700836E+06,
2461253.500000000, A.D. 2026-Aug-01 00:00:00.0000, -3.127759263356720E+08, -2.965872741160610E+08, 2.511676528529927E+06,
2461260.500000000, A.D. 2026-Aug-08 00:00:00.0000, -3.051191673966161E+08, -3.029196546899117E+08, 2.626885541432008E+06,
2461267.500000000, A.D. 2026-Aug-15 00:00:00.0000, -2.972760446760814E+08, -3.090670266487704E+08, 2.740490014144495E+06,
2461274.500000000, A.D. 2026-Aug-22 00:00:00.0000, -2.892499228172958E+08, -3.150241549295709E+08, 2.852407207155704E+06,
2461281.500000000, A.D. 2026-Aug-29 00:00:00.0000, -2.810442966037114E+08, -3.207857983042739E+08, 2.962553907861739E+06,
2461288.500000000, A.D. 2026-Sep-05 00:00:00.0000, -2.726627970406327E+08, -3.263467119033356E+08, 3.070846491705924E+06,
$$EOE